CCSDS_OMM_VERS = 2.0
CREATION_DATE  = 
ORIGINATOR     = 

OBJECT_NAME    = ISS (ZARYA)
OBJECT_ID      = 1998-067A
CENTER_NAME    = EARTH
REF_FRAME      = TEME
TIME_SYSTEM    = UTC
MEAN_ELEMENT_THEORY = SGP/SGP4

EPOCH          = 2026-03-24T03:55:35.551488
MEAN_MOTION    = 15.48514008
ECCENTRICITY   = .00062677
INCLINATION    = 51.6345
RA_OF_ASC_NODE = 0.8084
ARG_OF_PERICENTER = 226.2093
MEAN_ANOMALY   = 133.8378

EPHEMERIS_TYPE = 0
CLASSIFICATION_TYPE = U
NORAD_CAT_ID   = 25544
ELEMENT_SET_NO = 999
REV_AT_EPOCH   = 55857
BSTAR          = .2692749E-3
MEAN_MOTION_DOT = .1417E-3
MEAN_MOTION_DDOT = 0

CCSDS_OMM_VERS = 2.0
CREATION_DATE  = 
ORIGINATOR     = 

OBJECT_NAME    = POISK
OBJECT_ID      = 2009-060A
CENTER_NAME    = EARTH
REF_FRAME      = TEME
TIME_SYSTEM    = UTC
MEAN_ELEMENT_THEORY = SGP/SGP4

EPOCH          = 2026-03-24T03:55:35.551488
MEAN_MOTION    = 15.48514008
ECCENTRICITY   = .00062677
INCLINATION    = 51.6345
RA_OF_ASC_NODE = 0.8084
ARG_OF_PERICENTER = 226.2093
MEAN_ANOMALY   = 133.8378

EPHEMERIS_TYPE = 0
CLASSIFICATION_TYPE = U
NORAD_CAT_ID   = 36086
ELEMENT_SET_NO = 999
REV_AT_EPOCH   = 55743
BSTAR          = .2692749E-3
MEAN_MOTION_DOT = .1417E-3
MEAN_MOTION_DDOT = 0

CCSDS_OMM_VERS = 2.0
CREATION_DATE  = 
ORIGINATOR     = 

OBJECT_NAME    = CSS (TIANHE)
OBJECT_ID      = 2021-035A
CENTER_NAME    = EARTH
REF_FRAME      = TEME
TIME_SYSTEM    = UTC
MEAN_ELEMENT_THEORY = SGP/SGP4

EPOCH          = 2026-03-24T05:42:53.103168
MEAN_MOTION    = 15.61417953
ECCENTRICITY   = .0004823
INCLINATION    = 41.4662
RA_OF_ASC_NODE = 119.5892
ARG_OF_PERICENTER = 8.9107
MEAN_ANOMALY   = 351.1817

EPHEMERIS_TYPE = 0
CLASSIFICATION_TYPE = U
NORAD_CAT_ID   = 48274
ELEMENT_SET_NO = 999
REV_AT_EPOCH   = 27988
BSTAR          = .23638183E-3
MEAN_MOTION_DOT = .20484E-3
MEAN_MOTION_DDOT = 0

CCSDS_OMM_VERS = 2.0
CREATION_DATE  = 
ORIGINATOR     = 

OBJECT_NAME    = ISS (NAUKA)
OBJECT_ID      = 2021-066A
CENTER_NAME    = EARTH
REF_FRAME      = TEME
TIME_SYSTEM    = UTC
MEAN_ELEMENT_THEORY = SGP/SGP4

EPOCH          = 2026-03-24T03:55:35.551488
MEAN_MOTION    = 15.48514008
ECCENTRICITY   = .00062677
INCLINATION    = 51.6345
RA_OF_ASC_NODE = 0.8084
ARG_OF_PERICENTER = 226.2093
MEAN_ANOMALY   = 133.8378

EPHEMERIS_TYPE = 0
CLASSIFICATION_TYPE = U
NORAD_CAT_ID   = 49044
ELEMENT_SET_NO = 999
REV_AT_EPOCH   = 55747
BSTAR          = .2692749E-3
MEAN_MOTION_DOT = .1417E-3
MEAN_MOTION_DDOT = 0

CCSDS_OMM_VERS = 2.0
CREATION_DATE  = 
ORIGINATOR     = 

OBJECT_NAME    = FREGAT DEB
OBJECT_ID      = 2011-037PF
CENTER_NAME    = EARTH
REF_FRAME      = TEME
TIME_SYSTEM    = UTC
MEAN_ELEMENT_THEORY = SGP/SGP4

EPOCH          = 2026-03-24T04:30:30.049920
MEAN_MOTION    = 12.40651154
ECCENTRICITY   = .09627183
INCLINATION    = 51.6455
RA_OF_ASC_NODE = 257.2233
ARG_OF_PERICENTER = 92.6627
MEAN_ANOMALY   = 278.4636

EPHEMERIS_TYPE = 0
CLASSIFICATION_TYPE = U
NORAD_CAT_ID   = 49271
ELEMENT_SET_NO = 999
REV_AT_EPOCH   = 21449
BSTAR          = .20666749E-1
MEAN_MOTION_DOT = .14609E-3
MEAN_MOTION_DDOT = 0

CCSDS_OMM_VERS = 2.0
CREATION_DATE  = 
ORIGINATOR     = 

OBJECT_NAME    = CSS (WENTIAN)
OBJECT_ID      = 2022-085A
CENTER_NAME    = EARTH
REF_FRAME      = TEME
TIME_SYSTEM    = UTC
MEAN_ELEMENT_THEORY = SGP/SGP4

EPOCH          = 2026-03-24T05:42:53.103168
MEAN_MOTION    = 15.61417953
ECCENTRICITY   = .0004823
INCLINATION    = 41.4662
RA_OF_ASC_NODE = 119.5892
ARG_OF_PERICENTER = 8.9107
MEAN_ANOMALY   = 351.1817

EPHEMERIS_TYPE = 0
CLASSIFICATION_TYPE = U
NORAD_CAT_ID   = 53239
ELEMENT_SET_NO = 999
REV_AT_EPOCH   = 27910
BSTAR          = .23638183E-3
MEAN_MOTION_DOT = .20484E-3
MEAN_MOTION_DDOT = 0

CCSDS_OMM_VERS = 2.0
CREATION_DATE  = 
ORIGINATOR     = 

OBJECT_NAME    = CSS (MENGTIAN)
OBJECT_ID      = 2022-143A
CENTER_NAME    = EARTH
REF_FRAME      = TEME
TIME_SYSTEM    = UTC
MEAN_ELEMENT_THEORY = SGP/SGP4

EPOCH          = 2026-03-24T05:42:53.103168
MEAN_MOTION    = 15.61417953
ECCENTRICITY   = .0004823
INCLINATION    = 41.4662
RA_OF_ASC_NODE = 119.5892
ARG_OF_PERICENTER = 8.9107
MEAN_ANOMALY   = 351.1817

EPHEMERIS_TYPE = 0
CLASSIFICATION_TYPE = U
NORAD_CAT_ID   = 54216
ELEMENT_SET_NO = 999
REV_AT_EPOCH   = 27910
BSTAR          = .23638183E-3
MEAN_MOTION_DOT = .20484E-3
MEAN_MOTION_DDOT = 0

CCSDS_OMM_VERS = 2.0
CREATION_DATE  = 
ORIGINATOR     = 

OBJECT_NAME    = TIANZHOU-9
OBJECT_ID      = 2025-149A
CENTER_NAME    = EARTH
REF_FRAME      = TEME
TIME_SYSTEM    = UTC
MEAN_ELEMENT_THEORY = SGP/SGP4

EPOCH          = 2026-03-24T05:42:53.103168
MEAN_MOTION    = 15.61417953
ECCENTRICITY   = .0004823
INCLINATION    = 41.4662
RA_OF_ASC_NODE = 119.5892
ARG_OF_PERICENTER = 8.9107
MEAN_ANOMALY   = 351.1817

EPHEMERIS_TYPE = 0
CLASSIFICATION_TYPE = U
NORAD_CAT_ID   = 64786
ELEMENT_SET_NO = 999
REV_AT_EPOCH   = 27910
BSTAR          = .23638183E-3
MEAN_MOTION_DOT = .20484E-3
MEAN_MOTION_DDOT = 0

CCSDS_OMM_VERS = 2.0
CREATION_DATE  = 
ORIGINATOR     = 

OBJECT_NAME    = PROGRESS-MS 32
OBJECT_ID      = 2025-204A
CENTER_NAME    = EARTH
REF_FRAME      = TEME
TIME_SYSTEM    = UTC
MEAN_ELEMENT_THEORY = SGP/SGP4

EPOCH          = 2026-03-24T03:55:35.551488
MEAN_MOTION    = 15.48514008
ECCENTRICITY   = .00062677
INCLINATION    = 51.6345
RA_OF_ASC_NODE = 0.8084
ARG_OF_PERICENTER = 226.2093
MEAN_ANOMALY   = 133.8378

EPHEMERIS_TYPE = 0
CLASSIFICATION_TYPE = U
NORAD_CAT_ID   = 65586
ELEMENT_SET_NO = 999
REV_AT_EPOCH   = 55450
BSTAR          = .2692749E-3
MEAN_MOTION_DOT = .1417E-3
MEAN_MOTION_DDOT = 0

CCSDS_OMM_VERS = 2.0
CREATION_DATE  = 
ORIGINATOR     = 

OBJECT_NAME    = YOTSUBA-KULOVER
OBJECT_ID      = 1998-067XN
CENTER_NAME    = EARTH
REF_FRAME      = TEME
TIME_SYSTEM    = UTC
MEAN_ELEMENT_THEORY = SGP/SGP4

EPOCH          = 2026-03-23T23:07:06.848544
MEAN_MOTION    = 15.88031375
ECCENTRICITY   = .0005099
INCLINATION    = 51.6197
RA_OF_ASC_NODE = 342.8745
ARG_OF_PERICENTER = 174.2801
MEAN_ANOMALY   = 185.8263

EPHEMERIS_TYPE = 0
CLASSIFICATION_TYPE = U
NORAD_CAT_ID   = 65941
ELEMENT_SET_NO = 999
REV_AT_EPOCH   = 2576
BSTAR          = .11505657E-2
MEAN_MOTION_DOT = .332191E-2
MEAN_MOTION_DDOT = 0

CCSDS_OMM_VERS = 2.0
CREATION_DATE  = 
ORIGINATOR     = 

OBJECT_NAME    = BOTAN
OBJECT_ID      = 1998-067XQ
CENTER_NAME    = EARTH
REF_FRAME      = TEME
TIME_SYSTEM    = UTC
MEAN_ELEMENT_THEORY = SGP/SGP4

EPOCH          = 2026-03-23T23:19:51.733056
MEAN_MOTION    = 15.87345825
ECCENTRICITY   = .00056918
INCLINATION    = 51.6228
RA_OF_ASC_NODE = 342.9564
ARG_OF_PERICENTER = 173.8079
MEAN_ANOMALY   = 186.2997

EPHEMERIS_TYPE = 0
CLASSIFICATION_TYPE = U
NORAD_CAT_ID   = 65943
ELEMENT_SET_NO = 999
REV_AT_EPOCH   = 2576
BSTAR          = .11097541E-2
MEAN_MOTION_DOT = .308939E-2
MEAN_MOTION_DDOT = 0

CCSDS_OMM_VERS = 2.0
CREATION_DATE  = 
ORIGINATOR     = 

OBJECT_NAME    = HRC MONOBLOCK CAMERA
OBJECT_ID      = 1998-067XR
CENTER_NAME    = EARTH
REF_FRAME      = TEME
TIME_SYSTEM    = UTC
MEAN_ELEMENT_THEORY = SGP/SGP4

EPOCH          = 2026-03-24T00:32:11.922144
MEAN_MOTION    = 15.63725759
ECCENTRICITY   = .00038604
INCLINATION    = 51.6288
RA_OF_ASC_NODE = 353.1138
ARG_OF_PERICENTER = 158.8217
MEAN_ANOMALY   = 201.2938

EPHEMERIS_TYPE = 0
CLASSIFICATION_TYPE = U
NORAD_CAT_ID   = 66052
ELEMENT_SET_NO = 999
REV_AT_EPOCH   = 2463
BSTAR          = .52922259E-3
MEAN_MOTION_DOT = .50192E-3
MEAN_MOTION_DDOT = 0

